TEVEL2-1                
1 63217U 25052H   26068.64782323  .00020683  00000+0  70600-3 0  9994
2 63217  97.3991 324.7682 0004767 104.8919 255.2849 15.30341923 54855
STARLINK-35644          
1 66402U 25257Y   26068.64005810  .00011317  00000+0  39372-3 0  9994
2 66402  53.1577 217.4070 0000990  86.7928 273.3186 15.30192860 19710
